[{"OBJECT_NAME":"SHIYAN-27 C","OBJECT_ID":"2025-078C","EPOCH":"2026-03-10T00:15:30.147840","MEAN_MOTION":13.57242447,"ECCENTRICITY":7.327e-5,"INCLINATION":99.6952,"RA_OF_ASC_NODE":77.7773,"ARG_OF_PERICENTER":94.8771,"MEAN_ANOMALY":265.2451,"EPHEMERIS_TYPE":0,"CLASSIFICATION_TYPE":"U","NORAD_CAT_ID":63601,"ELEMENT_SET_NO":999,"REV_AT_EPOCH":4408,"BSTAR":0.00011282459,"MEAN_MOTION_DOT":3.6e-7,"MEAN_MOTION_DDOT":0},{"OBJECT_NAME":"THOR ABLESTAR R\/B","OBJECT_ID":"1964-083A","EPOCH":"2026-03-09T21:13:28.903584","MEAN_MOTION":13.58830553,"ECCENTRICITY":0.00317852,"INCLINATION":90.0361,"RA_OF_ASC_NODE":192.7393,"ARG_OF_PERICENTER":9.9677,"MEAN_ANOMALY":103.6013,"EPHEMERIS_TYPE":0,"CLASSIFICATION_TYPE":"U","NORAD_CAT_ID":953,"ELEMENT_SET_NO":999,"REV_AT_EPOCH":3509,"BSTAR":8.5072899e-5,"MEAN_MOTION_DOT":7.2e-7,"MEAN_MOTION_DDOT":0}]
